NORAD_CAT_ID,OBJECT_NAME,OBJECT_TYPE,EPOCH,MEAN_MOTION,ECCENTRICITY,INCLINATION,RA_OF_ASC_NODE,ARG_OF_PERICENTER,MEAN_ANOMALY,BSTAR,MEAN_MOTION_DOT,MEAN_MOTION_DDOT,TLE_LINE0,TLE_LINE1,TLE_LINE2,SEMIMAJOR_AXIS,PERIOD,APOGEE,PERIGEE,DECAYED
49433.0,STARLINK-3079,PAYLOAD,2023-02-27 19:42:18,15.08856145,0.0001081,53.2131,133.5622,63.5605,296.5498,0.0017416,0.00027551,0.0,0 STARLINK-3079,1 49433U 21104AB  23058.82104271  .00027551  00000-0  17416-2 0  9995,2 49433  53.2131 133.5622 0001081  63.5605 296.5498 15.08856145 73058,6917.831,95.437,540.444,538.948,0.0
49433.0,STARLINK-3079,PAYLOAD,2023-02-28 05:14:36,15.08843465,0.0001529,53.2145,131.7693,91.3956,268.7212,0.0013371,0.00021058,0.0,0 STARLINK-3079,1 49433U 21104AB  23059.21848153  .00021058  00000-0  13371-2 0  9995,2 49433  53.2145 131.7693 0001529  91.3956 268.7212 15.08843465 73119,6917.87,95.437,540.793,538.677,0.0
49433.0,STARLINK-3079,PAYLOAD,2023-02-28 13:11:31,15.08872422,0.0001257,53.2143,130.2839,87.8168,272.2968,0.0018246,0.00028896,0.0,0 STARLINK-3079,1 49433U 21104AB  23059.54967434  .00028896  00000-0  18246-2 0  9998,2 49433  53.2143 130.2839 0001257  87.8168 272.2968 15.08872422 73164,6917.781,95.436,540.516,538.777,0.0
49433.0,STARLINK-3079,PAYLOAD,2023-02-28 21:08:28,15.08790055,0.0001794,53.2153,128.7984,105.9298,254.1892,-0.0034515,-0.00054728,0.0,0 STARLINK-3079,1 49433U 21104AB  23059.88088084 -.00054728  00000-0 -34515-2 0  9992,2 49433  53.2153 128.7984 0001794 105.9298 254.1892 15.08790055 73212,6918.033,95.441,541.139,538.657,0.0
49433.0,STARLINK-3079,PAYLOAD,2023-03-01 09:51:35,15.08784224,0.00023,53.215,126.4191,139.5025,220.6138,0.0017579,0.00027757,0.0,0 STARLINK-3079,1 49433U 21104AB  23060.41082888  .00027757  00000-0  17579-2 0  9990,2 49433  53.2150 126.4191 0002300 139.5025 220.6138 15.08784224 73299,6918.051,95.441,541.507,538.325,0.0
49433.0,STARLINK-3079,PAYLOAD,2023-03-01 16:13:08,15.08821786,0.0001112,53.214,125.232,101.9222,258.1895,0.0027633,0.00043942,0.0,0 STARLINK-3079,1 49433U 21104AB  23060.67579107  .00043942  00000-0  27633-2 0  9999,2 49433  53.2140 125.2320 0001112 101.9222 258.1895 15.08821786 73337,6917.936,95.439,540.57,539.032,0.0
49433.0,STARLINK-3079,PAYLOAD,2023-03-01 20:59:17,15.08836684,0.0001112,53.2138,124.3391,93.3319,266.7801,0.0018914,0.00029939,0.0,0 STARLINK-3079,1 49433U 21104AB  23060.87451284  .00029939  00000-0  18914-2 0  9998,2 49433  53.2138 124.3391 0001112  93.3319 266.7801 15.08836684 73361,6917.891,95.438,540.525,538.986,0.0
49433.0,STARLINK-3079,PAYLOAD,2023-03-02 00:10:04,15.08842986,0.0001193,53.214,123.7442,94.1955,265.9173,0.0011998,0.0001886,0.0,0 STARLINK-3079,1 49433U 21104AB  23061.00699264  .00018860  00000-0  11998-2 0  9992,2 49433  53.2140 123.7442 0001193  94.1955 265.9173 15.08842986 73385,6917.871,95.437,540.562,538.911,0.0
49433.0,STARLINK-3079,PAYLOAD,2023-03-02 11:17:45,15.08871423,0.0001324,53.214,121.6634,91.6477,268.4667,0.0011944,0.00018788,0.0,0 STARLINK-3079,1 49433U 21104AB  23061.47066477  .00018788  00000-0  11944-2 0  9997,2 49433  53.2140 121.6634 0001324  91.6477 268.4667 15.08871423 73454,6917.784,95.436,540.565,538.733,0.0
49433.0,STARLINK-3079,PAYLOAD,2023-03-03 09:33:08,15.088724,0.0001362,53.2152,117.4994,101.945,258.1695,0.00070745,0.00010999,0.0,0 STARLINK-3079,1 49433U 21104AB  23062.39801297  .00010999  00000-0  70745-3 0  9997,2 49433  53.2152 117.4994 0001362 101.9450 258.1695 15.08872400 73595,6917.781,95.436,540.589,538.704,0.0
49433.0,STARLINK-3079,PAYLOAD,2023-03-03 11:08:31,15.08873682,0.0001422,53.2153,117.2029,104.0188,256.0962,0.00080239,0.00012517,0.0,0 STARLINK-3079,1 49433U 21104AB  23062.46425175  .00012517  00000-0  80239-3 0  9999,2 49433  53.2153 117.2029 0001422 104.0188 256.0962 15.08873682 73601,6917.777,95.435,540.626,538.659,0.0
49433.0,STARLINK-3079,PAYLOAD,2023-03-03 20:40:50,15.08857816,0.0001596,53.2162,115.4162,91.5075,268.61,0.00024155,3.56e-05,0.0,0 STARLINK-3079,1 49433U 21104AB  23062.86169158  .00003560  00000-0  24155-3 0  9992,2 49433  53.2162 115.4162 0001596  91.5075 268.6100 15.08857816 73666,6917.826,95.436,540.795,538.587,0.0
49433.0,STARLINK-3079,PAYLOAD,2023-03-04 10:59:18,15.08856121,0.0001694,53.2146,112.7444,88.7166,271.4021,0.00011547,1.551e-05,0.0,0 STARLINK-3079,1 49433U 21104AB  23063.45785148  .00001551  00000-0  11547-3 0  9990,2 49433  53.2146 112.7444 0001694  88.7166 271.4021 15.08856121 73751,6917.831,95.437,540.868,538.524,0.0
49433.0,STARLINK-3079,PAYLOAD,2023-03-04 20:31:37,15.08844529,0.0001507,53.2156,110.9587,88.9212,271.1953,3.3411e-05,2.44e-06,0.0,0 STARLINK-3079,1 49433U 21104AB  23063.85529121  .00000244  00000-0  33411-4 0  9994,2 49433  53.2156 110.9587 0001507  88.9212 271.1953 15.08844529 73814,6917.867,95.437,540.774,538.689,0.0
49433.0,STARLINK-3079,PAYLOAD,2023-03-05 07:39:19,15.08836734,0.0002139,53.2149,108.8754,98.5559,261.5676,8.4444e-06,-1.54e-06,0.0,0 STARLINK-3079,1 49433U 21104AB  23064.31897765 -.00000154  00000-0  84444-5 0  9992,2 49433  53.2149 108.8754 0002139  98.5559 261.5676 15.08836734 73882,6917.89,95.438,541.235,538.276,0.0
49433.0,STARLINK-3079,PAYLOAD,2023-03-05 20:22:25,15.08835804,0.0001747,53.216,106.4968,94.5177,265.6015,8.5467e-05,1.072e-05,0.0,0 STARLINK-3079,1 49433U 21104AB  23064.84890147  .00001072  00000-0  85467-4 0  9991,2 49433  53.2160 106.4968 0001747  94.5177 265.6015 15.08835804 73960,6917.893,95.438,540.967,538.55,0.0
49433.0,STARLINK-3079,PAYLOAD,2023-03-06 09:05:29,15.08857282,0.0001706,53.2148,104.1181,97.6248,262.4938,0.00087075,0.00013604,0.0,0 STARLINK-3079,1 49433U 21104AB  23065.37881589  .00013604  00000-0  87075-3 0  9990,2 49433  53.2148 104.1181 0001706  97.6248 262.4938 15.08857282 74049,6917.828,95.436,540.873,538.512,0.0
49433.0,STARLINK-3079,PAYLOAD,2023-03-06 13:51:38,15.08869442,0.0001728,53.2146,103.2232,109.3462,250.7717,0.001082,0.00016988,0.0,0 STARLINK-3079,1 49433U 21104AB  23065.57753051  .00016988  00000-0  10820-2 0  9995,2 49433  53.2146 103.2232 0001728 109.3462 250.7717 15.08869442 74076,6917.79,95.436,540.851,538.46,0.0
49433.0,STARLINK-3079,PAYLOAD,2023-03-07 02:34:44,15.08830778,0.0001371,53.2146,100.8478,99.5136,260.6011,-0.00024561,-4.194e-05,0.0,0 STARLINK-3079,1 49433U 21104AB  23066.10745955 -.00004194  00000-0 -24561-3 0  9995,2 49433  53.2146 100.8478 0001371  99.5136 260.6011 15.08830778 74159,6917.909,95.438,540.722,538.825,0.0
49433.0,STARLINK-3079,PAYLOAD,2023-03-07 10:31:40,15.08843568,0.0001389,53.2146,99.3602,111.5313,248.5827,0.00065842,0.00010207,0.0,0 STARLINK-3079,1 49433U 21104AB  23066.43865941  .00010207  00000-0  65842-3 0  9996,2 49433  53.2146  99.3602 0001389 111.5313 248.5827 15.08843568 74208,6917.869,95.437,540.695,538.774,0.0
49433.0,STARLINK-3079,PAYLOAD,2023-03-07 12:07:03,15.08852206,0.0001504,53.2146,99.0605,123.7252,236.3883,0.0011208,0.000176,0.0,0 STARLINK-3079,1 49433U 21104AB  23066.50489770  .00017600  00000-0  11208-2 0  9996,2 49433  53.2146  99.0605 0001504 123.7252 236.3883 15.08852206 74211,6917.843,95.437,540.749,538.668,0.0
49433.0,STARLINK-3079,PAYLOAD,2023-03-08 02:25:32,15.08849248,0.000125,53.2139,96.3825,108.1926,251.9202,0.0014921,0.00023545,0.0,0 STARLINK-3079,1 49433U 21104AB  23067.10106505  .00023545  00000-0  14921-2 0  9995,2 49433  53.2139  96.3825 0001250 108.1926 251.9202 15.08849248 74300,6917.852,95.437,540.582,538.852,0.0
49433.0,STARLINK-3079,PAYLOAD,2023-03-08 08:47:04,15.08841625,0.0001231,53.2145,95.1916,108.8259,251.2867,0.00093968,0.00014699,0.0,0 STARLINK-3079,1 49433U 21104AB  23067.36602483  .00014699  00000-0  93968-3 0  9998,2 49433  53.2145  95.1916 0001231 108.8259 251.2867 15.08841625 74345,6917.875,95.437,540.592,538.889,0.0
49433.0,STARLINK-3079,PAYLOAD,2023-03-08 18:19:23,15.08845733,0.0001222,53.2146,93.412,92.205,267.9082,0.00058441,9.027e-05,0.0,0 STARLINK-3079,1 49433U 21104AB  23067.76346476  .00009027  00000-0  58441-3 0  9995,2 49433  53.2146  93.4120 0001222  92.2050 267.9082 15.08845733 74403,6917.863,95.437,540.573,538.883,0.0
49433.0,STARLINK-3079,PAYLOAD,2023-03-09 07:02:28,15.08852726,0.000122,53.2145,91.0331,94.5847,265.5284,0.00052256,8.041e-05,0.0,0 STARLINK-3079,1 49433U 21104AB  23068.29338153  .00008041  00000-0  52256-3 0  9990,2 49433  53.2145  91.0331 0001220  94.5847 265.5284 15.08852726 74483,6917.841,95.437,540.55,538.863,0.0
49433.0,STARLINK-3079,PAYLOAD,2023-03-09 18:10:09,15.0886227,0.0001216,53.2147,88.952,81.3404,278.7726,0.0007388,0.00011497,0.0,0 STARLINK-3079,1 49433U 21104AB  23068.75705641  .00011497  00000-0  73880-3 0  9996,2 49433  53.2147  88.9520 0001216  81.3404 278.7726 15.08862270 74558,6917.812,95.436,540.519,538.836,0.0
49433.0,STARLINK-3079,PAYLOAD,2023-03-10 05:17:51,15.08844018,0.0001241,53.2144,86.8699,84.0836,276.0297,3.163e-05,2.16e-06,0.0,0 STARLINK-3079,1 49433U 21104AB  23069.22073819  .00000216  00000-0  31630-4 0  9999,2 49433  53.2144  86.8699 0001241  84.0836 276.0297 15.08844018 74628,6917.868,95.437,540.592,538.875,0.0
49433.0,STARLINK-3079,PAYLOAD,2023-03-10 18:00:56,15.08838658,7.25e-05,53.2153,84.4911,113.2466,246.8602,-0.00016011,-2.835e-05,0.0,0 STARLINK-3079,1 49433U 21104AB  23069.75065552 -.00002835  00000-0 -16011-3 0  9998,2 49433  53.2153  84.4911 0000725 113.2466 246.8602 15.08838658 74706,6917.884,95.438,540.251,539.248,0.0
49433.0,STARLINK-3079,PAYLOAD,2023-03-11 01:57:53,15.08834031,0.0001829,53.2144,83.0038,94.0179,266.1022,3.8713e-06,-2.27e-06,0.0,0 STARLINK-3079,1 49433U 21104AB  23070.08186492 -.00000227  00000-0  38713-5 0  9990,2 49433  53.2144  83.0038 0001829  94.0179 266.1022 15.08834031 74751,6917.899,95.438,541.029,538.498,0.0
49433.0,STARLINK-3079,PAYLOAD,2023-03-11 09:54:48,15.08831434,0.0001629,53.2152,81.5149,91.3444,268.7735,0.0001388,1.921e-05,0.0,0 STARLINK-3079,1 49433U 21104AB  23070.41306639  .00001921  00000-0  13880-3 0  9991,2 49433  53.2152  81.5149 0001629  91.3444 268.7735 15.08831434 74808,6917.907,95.438,540.898,538.645,0.0
